[{"OBJECT_NAME":"STARLINK-5082","OBJECT_ID":"2022-177AB","EPOCH":"2026-03-09T22:00:01.999584","MEAN_MOTION":15.19625958,"ECCENTRICITY":0.00018811,"INCLINATION":43.0011,"RA_OF_ASC_NODE":130.8926,"ARG_OF_PERICENTER":279.8198,"MEAN_ANOMALY":76.1776,"EPHEMERIS_TYPE":0,"CLASSIFICATION_TYPE":"U","NORAD_CAT_ID":54845,"ELEMENT_SET_NO":999,"REV_AT_EPOCH":573,"BSTAR":0.051218769,"MEAN_MOTION_DOT":0.01214193,"MEAN_MOTION_DDOT":0},{"OBJECT_NAME":"TOMORROW-S6","OBJECT_ID":"2025-052R","EPOCH":"2026-03-09T16:40:22.799712","MEAN_MOTION":15.21501626,"ECCENTRICITY":0.00068231,"INCLINATION":97.4118,"RA_OF_ASC_NODE":323.125,"ARG_OF_PERICENTER":114.9559,"MEAN_ANOMALY":245.2387,"EPHEMERIS_TYPE":0,"CLASSIFICATION_TYPE":"U","NORAD_CAT_ID":63225,"ELEMENT_SET_NO":999,"REV_AT_EPOCH":5471,"BSTAR":0.00024124683,"MEAN_MOTION_DOT":5.362e-5,"MEAN_MOTION_DDOT":0}]
